SCD 1                   
1 22490U 93009B   25197.21343935  .00000328  00000+0  38895-4 0  9991
2 22490  24.9691 121.6339 0042129 182.3633 328.3740 14.45873310712833
TECHSAT 1B (GO-32)      
1 25397U 98043D   25197.22105003  .00000041  00000+0  37897-4 0  9999
2 25397  98.9724 177.1088 0002369  96.8335 263.3113 14.24322238403729
SCD 2                   
1 25504U 98060A   25196.70952216  .00000351  00000+0  47305-4 0  9995
2 25504  24.9965 346.8890 0016829 167.2780 216.0279 14.45311770411598
DLR-TUBSAT              
1 25757U 99029B   25197.50650572  .00000071  00000+0  29450-4 0  9990
2 25757  98.6373 177.5446 0013131 293.1007  66.8803 14.52281569384626
TERRA                   
1 25994U 99068A   25197.13910949  .00000277  00000+0  65884-4 0  9991
2 25994  97.9964 254.1160 0002059 172.6568 240.6138 14.60733249360669
MAROC-TUBSAT            
1 27004U 01056D   25196.91735034 -.00000030  00000+0  18945-4 0  9994
2 27004  99.7812   2.8158 0019041 284.9370 200.3433 13.70244019180132
AQUA                    
1 27424U 02022A   25197.52295667  .00000604  00000+0  13209-3 0  9998
2 27424  98.3793 156.2460 0001041  54.9311  58.8315 14.61347397234276
IRS-P6 (RESOURCESAT-1)  
1 28051U 03046A   25197.47594609  .00000073  00000+0  38783-4 0  9999
2 28051  98.2389 244.5955 0062891 269.1076 199.4265 14.35990232132378
SHIYAN-1 (SY-1)         
1 28220U 04012A   25197.18501490  .00006889  00000+0  29011-3 0  9999
2 28220  97.9143 250.2844 0008645 115.2191 244.9942 15.23680310159948
AURA                    
1 28376U 04026A   25196.90866775  .00000604  00000+0  13429-3 0  9990
2 28376  98.2952 146.7131 0001190  74.4814 285.6517 14.60487242117118
IRS-P5 (CARTOSAT-1)     
1 28649U 05017A   25197.53324174  .00000950  00000+0  10456-3 0  9997
2 28649  97.5653 230.4507 0002681  94.3257 265.8268 14.89748757 93890
SINAH 1                 
1 28893U 05043D   25196.91824218  .00000260  00000+0  59276-4 0  9990
2 28893  98.2416 325.2826 0013346 247.6157 112.3631 14.63742617 51328
EROS B                  
1 29079U 06014A   25197.55553750  .00030032  00000+0  71133-3 0  9992
2 29079  97.3479 310.8777 0003992 270.0248  90.0541 15.41713587 67685
RESURS-DK 1             
1 29228U 06021A   25197.53890971  .00001738  00000+0  10988-3 0  9995
2 29228  69.9325 127.0666 0002687 160.5018 199.6250 15.11090672 51854
ARIRANG-2 (KOMPSAT-2)   
1 29268U 06031A   25197.54192949  .00000225  00000+0  51048-4 0  9994
2 29268  97.8360  33.2305 0015808  61.2877 314.1960 14.64324414 12450
LAPAN-TUBSAT            
1 29709U 07001A   25197.51489102  .00000360  00000+0  48434-4 0  9994
2 29709  98.1112 184.7217 0011919 192.0131 168.0801 14.85375051  1328
HAIYANG-1B              
1 31113U 07010A   25197.51457554  .00000065  00000+0  40603-4 0  9994
2 31113  98.3153 188.0589 0014733 114.2251 246.0474 14.30901746953361
COSMO-SKYMED 1          
1 31598U 07023A   25197.53555875  .00006748  00000+0  63505-3 0  9991
2 31598  97.8872  22.0862 0001991  92.4942 267.6505 14.94191420979673
TERRASAR-X              
1 31698U 07026A   25195.74857117  .00000387  00000+0  21601-4 0  9995
2 31698  97.4456 203.2845 0001695  82.0955 278.0472 15.19151378  1998
WORLDVIEW-1 (WV-1)      
1 32060U 07041A   25197.33597981  .00005151  00000+0  21411-3 0  9995
2 32060  97.3810 316.9652 0000492  21.2657 338.8601 15.24231474991844
YAOGAN-3                
1 32289U 07055A   25197.53123989  .00001488  00000+0  16438-3 0  9990
2 32289  97.8514 225.4385 0001911  94.0607 266.0828 14.88919676955940
COSMO-SKYMED 2          
1 32376U 07059A   25197.49874068  .00000336  00000+0  48719-4 0  9996
2 32376  97.8883  20.9650 0001347  91.1534 268.9833 14.82158633952350
RADARSAT-2              
1 32382U 07061A   25197.52750590  .00000041  00000+0  32645-4 0  9997
2 32382  98.5783 204.2416 0001271  90.2460 269.8868 14.29984048918094
CARTOSAT-2A             
1 32783U 08021A   25197.47104337  .00000508  00000+0  76014-4 0  9991
2 32783  97.8132 251.7862 0012476 119.8098 240.4356 14.78732631929277
HUANJING 1A (HJ-1A)     
1 33320U 08041A   25197.52086670  .00000853  00000+0  11142-3 0  9999
2 33320  97.6417 192.1943 0019991 156.1486 204.0659 14.82781622908741
HUANJING 1B (HJ-1B)     
1 33321U 08041B   25197.56212058  .00000635  00000+0  84897-4 0  9991
2 33321  97.6300 196.2828 0036383 202.4214 157.5411 14.82311933908762
GEOEYE 1                
1 33331U 08042A   25196.91762970  .00000340  00000+0  72811-4 0  9990
2 33331  98.1207 270.1074 0005116  48.7901 311.3742 14.64709401900922
THEOS                   
1 33396U 08049A   25197.45004242  .00000018  00000+0  28419-4 0  9996
2 33396  98.6077 259.7562 0001102  97.3555 262.7747 14.20055483870335
COSMO-SKYMED 3          
1 33412U 08054A   25197.54786945  .00001906  00000+0  14351-3 0  9994
2 33412  97.8661  45.4682 0015969 325.4617  34.5569 15.03682136906449
YAOGAN-4                
1 33446U 08061A   25197.35880006  .00000724  00000+0  97541-4 0  9991
2 33446  97.9043 129.1620 0016106  84.8748 275.4303 14.82111344895902
GOSAT (IBUKI)           
1 33492U 09002A   25196.59259394  .00000150  00000+0  34856-4 0  9996
2 33492  98.0663 307.3938 0001838  76.7601 283.3809 14.67552370882095
DEIMOS-1                
1 35681U 09041A   25197.17711809  .00000419  00000+0  69913-4 0  9990
2 35681  97.7035   4.8868 0001680 139.0547 221.0789 14.74638230857359
DUBAISAT-1              
1 35682U 09041B   25196.93655316  .00000724  00000+0  11759-3 0  9997
2 35682  97.9597 330.0845 0011991  73.2170 287.0353 14.74039262855606
OCEANSAT-2              
1 35931U 09051A   25197.49397599 -.00000136  00000+0 -67278-4 0  9990
2 35931  98.2241 213.1805 0017100 101.8015 258.5071 13.99601865832373
WORLDVIEW-2 (WV-2)      
1 35946U 09055A   25196.94381030  .00000070  00000+0  38038-4 0  9999
2 35946  98.4806 270.1318 0005174 135.3269 224.8336 14.37280445827331
SMOS                    
1 36036U 09059A   25197.52291020  .00000158  00000+0  64239-4 0  9997
2 36036  98.4429  24.7356 0001426  96.6789 263.4561 14.39759720825291
YAOGAN-7                
1 36110U 09069A   25197.23974228  .00000352  00000+0  56547-4 0  9996
2 36110  98.0512  79.4190 0025861  44.1329 316.1938 14.77457441840055
TANDEM-X                
1 36605U 10030A   25195.74857067  .00000247  00000+0  14947-4 0  9991
2 36605  97.4465 203.2851 0001802  97.4500 262.6940 15.19150737835413
CARTOSAT-2B             
1 36795U 10035A   25197.43917944  .00000475  00000+0  71528-4 0  9996
2 36795  97.8068 251.0972 0011463 193.7833 166.3068 14.78747236810317
YAOGAN-10               
1 36834U 10038A   25197.54208060  .00000458  00000+0  61140-4 0  9997
2 36834  97.9248 218.3755 0001630  94.7386  22.4553 14.84252603807475
COSMO-SKYMED 4          
1 37216U 10060A   25197.51141104  .00000315  00000+0  46157-4 0  9992
2 37216  97.8882  20.9800 0001428  89.7432 270.3945 14.82158678794909
RESOURCESAT-2           
1 37387U 11015A   25197.50263930  .00000054  00000+0  44820-4 0  9998
2 37387  98.8070 261.5524 0007038 103.8176 256.3785 14.21580475739014
HAIYANG-2A              
1 37781U 11043A   25197.51334693 -.00000005  00000+0  38192-4 0  9995
2 37781  99.3329 200.7292 0001771  99.3967 260.7384 13.78820227700674
RASAT                   
1 37791U 11044D   25197.53436407  .00000404  00000+0  79391-4 0  9993
2 37791  98.0687 289.0145 0020970 172.4984 243.3173 14.67624100743962
SRMSAT                  
1 37841U 11058D   25196.95380681  .00000359  00000+0  51263-4 0  9998
2 37841  19.9725 294.4384 0011868 104.4492  54.5648 14.11444505710256
PLEIADES 1A             
1 38012U 11076F   25197.52586991  .00000211  00000+0  55251-4 0  9993
2 38012  98.1973 272.4618 0001692  95.5378 321.7884 14.58575190723075
ZIYUAN 1-02C (ZY 1-02C) 
1 38038U 11079A   25197.50042591  .00000314  00000+0  11858-3 0  9993
2 38038  98.4519 266.1244 0005605 223.1479 250.8336 14.37799804711018
ZIYUAN 3-1 (ZY 3-1)     
1 38046U 12001A   25197.50963287  .00016462  00000+0  25526-3 0  9990
2 38046  97.1961 262.2633 0004696 136.9082 223.2541 15.54067391751760
ARIRANG-3 (KOMPSAT-3)   
1 38338U 12025B   25197.49988152  .00000330  00000+0  76284-4 0  9991
2 38338  98.3078 151.2162 0007211  74.5624 285.6373 14.61453410702393
EXACTVIEW-1 (ADS-1B)    
1 38709U 12039C   25196.89064661  .00000081  00000+0  54309-4 0  9998
2 38709  98.9554 302.2380 0011824  63.8616 296.3777 14.24827691674814
SPOT 6                  
1 38755U 12047A   25197.46252685  .00000202  00000+0  53243-4 0  9998
2 38755  98.1759 264.8224 0001689  97.2258 262.9134 14.58582008684145
PLEIADES 1B             
1 39019U 12068A   25197.48049420  .00000222  00000+0  57487-4 0  9994
2 39019  98.1945 272.3507 0001490  92.9506 267.1864 14.58568486671914
GOKTURK 2               
1 39030U 12073A   25197.55589221  .00000329  00000+0  55930-4 0  9998
2 39030  97.7078  46.4271 0001548  64.1517 295.9852 14.75036033675056
LANDSAT 8               
1 39084U 13008A   25197.50586240  .00000237  00000+0  62738-4 0  9991
2 39084  98.2244 267.6233 0001353  88.7531 271.3822 14.57102592660832
SARAL                   
1 39086U 13009A   25197.20591524  .00000058  00000+0  37310-4 0  9991
2 39086  98.5539  23.0661 0001848 163.0127 197.1119 14.32691274647494
GAOFEN-1                
1 39150U 13018A   25197.54448538  .00000428  00000+0  68672-4 0  9992
2 39150  97.9488 270.6906 0016026 266.7912  93.1464 14.76504112658752
VNREDSAT 1              
1 39160U 13021B   25197.51754150  .00000407  00000+0  84620-4 0  9992
2 39160  97.9475 257.9200 0001631  95.4700 264.6690 14.64969245651165
ARIRANG-5 (KOMPSAT-5)   
1 39227U 13042A   25197.49823563  .00000672  00000+0  52310-4 0  9996
2 39227  97.6201  23.8815 0002267 163.3677 196.7624 15.04508991653446
SKYSAT-A                
1 39418U 13066C   25196.66218033  .00001888  00000+0  11865-3 0  9991
2 39418  97.4322 251.3664 0023667  39.6027 320.6926 15.10209751637647
DUBAISAT-2              
1 39419U 13066D   25197.55363623  .00002542  00000+0  17538-3 0  9998
2 39419  97.4335 192.8379 0013746 103.3857 256.8904 15.06589865635793
